[{"OBJECT_NAME":"OBJECT AL","OBJECT_ID":"2023-085AL","EPOCH":"2026-03-09T22:26:04.970400","MEAN_MOTION":15.31857284,"ECCENTRICITY":0.000802,"INCLINATION":97.4839,"RA_OF_ASC_NODE":180.0127,"ARG_OF_PERICENTER":78.7242,"MEAN_ANOMALY":281.49,"EPHEMERIS_TYPE":0,"CLASSIFICATION_TYPE":"U","NORAD_CAT_ID":57038,"ELEMENT_SET_NO":999,"REV_AT_EPOCH":15154,"BSTAR":0.0006591637,"MEAN_MOTION_DOT":0.00020246,"MEAN_MOTION_DDOT":0},{"OBJECT_NAME":"STARLINK-34086","OBJECT_ID":"2025-216A","EPOCH":"2026-03-09T22:41:19.344192","MEAN_MOTION":15.30189879,"ECCENTRICITY":0.00017658,"INCLINATION":53.1596,"RA_OF_ASC_NODE":331.6461,"ARG_OF_PERICENTER":139.2059,"MEAN_ANOMALY":220.9074,"EPHEMERIS_TYPE":0,"CLASSIFICATION_TYPE":"U","NORAD_CAT_ID":65734,"ELEMENT_SET_NO":999,"REV_AT_EPOCH":2660,"BSTAR":0.0009351833,"MEAN_MOTION_DOT":0.00027432,"MEAN_MOTION_DDOT":0}]
